{
    "links": {
        "self": "http://www.neowsapp.com/rest/v1/neo/3878620?api_key=iIulBulltgU6a56xZRHN4H3l9WmuAYTsLGpBGhQ2"
    },
    "id": "3878620",
    "neo_reference_id": "3878620",
    "name": "(2019 TO5)",
    "designation": "2019 TO5",
    "nasa_jpl_url": "http://ssd.jpl.nasa.gov/sbdb.cgi?sstr=3878620",
    "absolute_magnitude_h": 24.9,
    "estimated_diameter": {
        "kilometers": {
            "estimated_diameter_min": 0.0278326768,
            "estimated_diameter_max": 0.0622357573
        },
        "meters": {
            "estimated_diameter_min": 27.8326768072,
            "estimated_diameter_max": 62.2357573367
        },
        "miles": {
            "estimated_diameter_min": 0.0172944182,
            "estimated_diameter_max": 0.0386714948
        },
        "feet": {
            "estimated_diameter_min": 91.3145593761,
            "estimated_diameter_max": 204.1855621004
        }
    },
    "is_potentially_hazardous_asteroid": false,
    "close_approach_data": [
        {
            "close_approach_date": "2019-04-21",
            "close_approach_date_full": "2019-Apr-21 16:21",
            "epoch_date_close_approach": 1555863660000,
            "relative_velocity": {
                "kilometers_per_second": "18.3679348737",
                "kilometers_per_hour": "66124.5655454273",
                "miles_per_hour": "41087.2335190462"
            },
            "miss_distance": {
                "astronomical": "0.4384421219",
                "lunar": "170.5539854191",
                "kilometers": "65590007.554520353",
                "miles": "40755740.8255647514"
            },
            "orbiting_body": "Earth"
        },
        {
            "close_approach_date": "2019-10-05",
            "close_approach_date_full": "2019-Oct-05 12:55",
            "epoch_date_close_approach": 1570280100000,
            "relative_velocity": {
                "kilometers_per_second": "19.5729499122",
                "kilometers_per_hour": "70462.6196837969",
                "miles_per_hour": "43782.7316585237"
            },
            "miss_distance": {
                "astronomical": "0.0792272266",
                "lunar": "30.8193911474",
                "kilometers": "11852224.345367342",
                "miles": "7364630.7057476396"
            },
            "orbiting_body": "Earth"
        }
    ],
    "orbital_data": {
        "orbit_id": "3",
        "orbit_determination_date": "2019-12-04 07:20:13",
        "first_observation_date": "2019-10-06",
        "last_observation_date": "2019-10-10",
        "data_arc_in_days": 4,
        "observations_used": 36,
        "orbit_uncertainty": "8",
        "minimum_orbit_intersection": ".0792045",
        "jupiter_tisserand_invariant": "4.655",
        "epoch_osculation": "2458764.5",
        "eccentricity": ".2598927631149581",
        "semi_major_axis": "1.348972757640079",
        "inclination": "35.73361828194621",
        "ascending_node_longitude": "13.61259786330406",
        "orbital_period": "572.2729202236621",
        "perihelion_distance": ".9983845002901938",
        "perihelion_argument": "308.4235909522512",
        "aphelion_distance": "1.699561014989963",
        "perihelion_time": "2458715.341163595240",
        "mean_anomaly": "30.92437276046015",
        "mean_motion": ".6290704789234143",
        "equinox": "J2000",
        "orbit_class": {
            "orbit_class_type": "APO",
            "orbit_class_description": "Near-Earth asteroid orbits which cross the Earth’s orbit similar to that of 1862 Apollo",
            "orbit_class_range": "a (semi-major axis) > 1.0 AU; q (perihelion) < 1.017 AU"
        }
    },
    "is_sentry_object": false
}